IRIDIUM 26              
1 24903U 97043A   25156.41920042  .00000444  00000+0  14276-3 0  9996
2 24903  86.3946 115.5659 0002468  89.5935 270.5545 14.37137436455053
IRIDIUM 22              
1 24907U 97043E   25156.40898640  .00000398  00000+0  13055-3 0  9999
2 24907  86.3951 119.0992 0002362  86.3310 273.8157 14.35951435455086
DUMMY MASS 1            
1 24925U 97048A   25156.43870615  .00000447  00000+0  46827-4 0  9998
2 24925  86.3342 140.7610 0006740 167.3519 192.7876 14.86978150503386
DUMMY MASS 2            
1 24926U 97048B   25156.46619807  .00000445  00000+0  46906-4 0  9992
2 24926  86.3343 142.3528 0006994 180.7866 179.3349 14.86730439503167
IRIDIUM 29              
1 24944U 97051A   25156.43608308  .00000469  00000+0  15341-3 0  9991
2 24944  86.3960 148.8255 0002184  85.0385 275.1062 14.36459102451585
IRIDIUM 33              
1 24946U 97051C   25156.47475862  .00000314  00000+0  10365-3 0  9994
2 24946  86.3875 148.0683 0009926 110.7177 249.5084 14.34886168451072
IRIDIUM 28              
1 24948U 97051E   25156.48698156  .00000392  00000+0  12464-3 0  9998
2 24948  86.3964 146.3276 0002729  94.9251 265.2259 14.37379186452230
IRIDIUM 36              
1 24967U 97056C   25156.59135120  .00000410  00000+0  13026-3 0  9999
2 24967  86.3989 177.8661 0002573  87.6525 272.4967 14.37601834450552
